CCSDS_OMM_VERS = 2.0
CREATION_DATE  = 
ORIGINATOR     = 

OBJECT_NAME    = STARLINK-36309
OBJECT_ID      = 2026-059E
CENTER_NAME    = EARTH
REF_FRAME      = TEME
TIME_SYSTEM    = UTC
MEAN_ELEMENT_THEORY = SGP/SGP4

EPOCH          = 2026-03-31T16:00:01.999584
MEAN_MOTION    = 15.80856855
ECCENTRICITY   = .0000548
INCLINATION    = 53.1595
RA_OF_ASC_NODE = 252.7165
ARG_OF_PERICENTER = 25.9035
MEAN_ANOMALY   = 199.8113

EPHEMERIS_TYPE = 0
CLASSIFICATION_TYPE = U
NORAD_CAT_ID   = 68325
ELEMENT_SET_NO = 999
REV_AT_EPOCH   = 257
BSTAR          = .18561E-3
MEAN_MOTION_DOT = .3606E-3
MEAN_MOTION_DDOT = 0

CCSDS_OMM_VERS = 2.0
CREATION_DATE  = 
ORIGINATOR     = 

OBJECT_NAME    = STARLINK-37206
OBJECT_ID      = 2026-059F
CENTER_NAME    = EARTH
REF_FRAME      = TEME
TIME_SYSTEM    = UTC
MEAN_ELEMENT_THEORY = SGP/SGP4

EPOCH          = 2026-03-31T16:00:01.999584
MEAN_MOTION    = 15.80874459
ECCENTRICITY   = .0001824
INCLINATION    = 53.1597
RA_OF_ASC_NODE = 252.7078
ARG_OF_PERICENTER = 25.1701
MEAN_ANOMALY   = 204.8176

EPHEMERIS_TYPE = 0
CLASSIFICATION_TYPE = U
NORAD_CAT_ID   = 68326
ELEMENT_SET_NO = 999
REV_AT_EPOCH   = 257
BSTAR          = -.31363E-4
MEAN_MOTION_DOT = -.6886E-4
MEAN_MOTION_DDOT = 0

CCSDS_OMM_VERS = 2.0
CREATION_DATE  = 
ORIGINATOR     = 

OBJECT_NAME    = STARLINK-37199
OBJECT_ID      = 2026-059G
CENTER_NAME    = EARTH
REF_FRAME      = TEME
TIME_SYSTEM    = UTC
MEAN_ELEMENT_THEORY = SGP/SGP4

EPOCH          = 2026-03-31T16:00:01.999584
MEAN_MOTION    = 15.80807748
ECCENTRICITY   = .0001052
INCLINATION    = 53.1596
RA_OF_ASC_NODE = 252.6988
ARG_OF_PERICENTER = 96.8453
MEAN_ANOMALY   = 137.4335

EPHEMERIS_TYPE = 0
CLASSIFICATION_TYPE = U
NORAD_CAT_ID   = 68327
ELEMENT_SET_NO = 999
REV_AT_EPOCH   = 257
BSTAR          = .56553E-3
MEAN_MOTION_DOT = .112037E-2
MEAN_MOTION_DDOT = 0

CCSDS_OMM_VERS = 2.0
CREATION_DATE  = 
ORIGINATOR     = 

OBJECT_NAME    = STARLINK-36245
OBJECT_ID      = 2026-059H
CENTER_NAME    = EARTH
REF_FRAME      = TEME
TIME_SYSTEM    = UTC
MEAN_ELEMENT_THEORY = SGP/SGP4

EPOCH          = 2026-03-31T16:00:01.999584
MEAN_MOTION    = 15.80858400
ECCENTRICITY   = .0001467
INCLINATION    = 53.1595
RA_OF_ASC_NODE = 252.6813
ARG_OF_PERICENTER = 85.1064
MEAN_ANOMALY   = 157.7005

EPHEMERIS_TYPE = 0
CLASSIFICATION_TYPE = U
NORAD_CAT_ID   = 68328
ELEMENT_SET_NO = 999
REV_AT_EPOCH   = 257
BSTAR          = .18213E-3
MEAN_MOTION_DOT = .3537E-3
MEAN_MOTION_DDOT = 0

CCSDS_OMM_VERS = 2.0
CREATION_DATE  = 
ORIGINATOR     = 

OBJECT_NAME    = STARLINK-37204
OBJECT_ID      = 2026-059J
CENTER_NAME    = EARTH
REF_FRAME      = TEME
TIME_SYSTEM    = UTC
MEAN_ELEMENT_THEORY = SGP/SGP4

EPOCH          = 2026-03-31T16:00:01.999584
MEAN_MOTION    = 15.80863839
ECCENTRICITY   = .0000972
INCLINATION    = 53.1595
RA_OF_ASC_NODE = 252.6905
ARG_OF_PERICENTER = 78.9071
MEAN_ANOMALY   = 159.6373

EPHEMERIS_TYPE = 0
CLASSIFICATION_TYPE = U
NORAD_CAT_ID   = 68329
ELEMENT_SET_NO = 999
REV_AT_EPOCH   = 257
BSTAR          = -.31674E-4
MEAN_MOTION_DOT = -.6942E-4
MEAN_MOTION_DDOT = 0

CCSDS_OMM_VERS = 2.0
CREATION_DATE  = 
ORIGINATOR     = 

OBJECT_NAME    = STARLINK-37001
OBJECT_ID      = 2026-059K
CENTER_NAME    = EARTH
REF_FRAME      = TEME
TIME_SYSTEM    = UTC
MEAN_ELEMENT_THEORY = SGP/SGP4

EPOCH          = 2026-03-31T16:00:01.999584
MEAN_MOTION    = 15.80850233
ECCENTRICITY   = .0001492
INCLINATION    = 53.1594
RA_OF_ASC_NODE = 252.6727
ARG_OF_PERICENTER = 95.5554
MEAN_ANOMALY   = 151.5333

EPHEMERIS_TYPE = 0
CLASSIFICATION_TYPE = U
NORAD_CAT_ID   = 68330
ELEMENT_SET_NO = 999
REV_AT_EPOCH   = 257
BSTAR          = .17212E-3
MEAN_MOTION_DOT = .33367E-3
MEAN_MOTION_DDOT = 0

CCSDS_OMM_VERS = 2.0
CREATION_DATE  = 
ORIGINATOR     = 

OBJECT_NAME    = STARLINK-36932
OBJECT_ID      = 2026-059L
CENTER_NAME    = EARTH
REF_FRAME      = TEME
TIME_SYSTEM    = UTC
MEAN_ELEMENT_THEORY = SGP/SGP4

EPOCH          = 2026-03-31T16:00:01.999584
MEAN_MOTION    = 15.80841553
ECCENTRICITY   = .0000649
INCLINATION    = 53.1595
RA_OF_ASC_NODE = 252.6638
ARG_OF_PERICENTER = 34.9968
MEAN_ANOMALY   = 216.3698

EPHEMERIS_TYPE = 0
CLASSIFICATION_TYPE = U
NORAD_CAT_ID   = 68331
ELEMENT_SET_NO = 999
REV_AT_EPOCH   = 257
BSTAR          = .22923E-3
MEAN_MOTION_DOT = .44713E-3
MEAN_MOTION_DDOT = 0

CCSDS_OMM_VERS = 2.0
CREATION_DATE  = 
ORIGINATOR     = 

OBJECT_NAME    = STARLINK-37205
OBJECT_ID      = 2026-059M
CENTER_NAME    = EARTH
REF_FRAME      = TEME
TIME_SYSTEM    = UTC
MEAN_ELEMENT_THEORY = SGP/SGP4

EPOCH          = 2026-03-31T16:00:01.999584
MEAN_MOTION    = 15.80869969
ECCENTRICITY   = .0001094
INCLINATION    = 53.1594
RA_OF_ASC_NODE = 252.6552
ARG_OF_PERICENTER = 83.5801
MEAN_ANOMALY   = 172.0491

EPHEMERIS_TYPE = 0
CLASSIFICATION_TYPE = U
NORAD_CAT_ID   = 68332
ELEMENT_SET_NO = 999
REV_AT_EPOCH   = 257
BSTAR          = .4399E-4
MEAN_MOTION_DOT = .799E-4
MEAN_MOTION_DDOT = 0

CCSDS_OMM_VERS = 2.0
CREATION_DATE  = 
ORIGINATOR     = 

OBJECT_NAME    = STARLINK-37180
OBJECT_ID      = 2026-059N
CENTER_NAME    = EARTH
REF_FRAME      = TEME
TIME_SYSTEM    = UTC
MEAN_ELEMENT_THEORY = SGP/SGP4

EPOCH          = 2026-03-31T16:00:01.999584
MEAN_MOTION    = 15.80754721
ECCENTRICITY   = .0000797
INCLINATION    = 53.1596
RA_OF_ASC_NODE = 252.6461
ARG_OF_PERICENTER = 27.5459
MEAN_ANOMALY   = 232.3653

EPHEMERIS_TYPE = 0
CLASSIFICATION_TYPE = U
NORAD_CAT_ID   = 68333
ELEMENT_SET_NO = 999
REV_AT_EPOCH   = 257
BSTAR          = .10924E-2
MEAN_MOTION_DOT = .219272E-2
MEAN_MOTION_DDOT = 0

CCSDS_OMM_VERS = 2.0
CREATION_DATE  = 
ORIGINATOR     = 

OBJECT_NAME    = STARLINK-37191
OBJECT_ID      = 2026-059P
CENTER_NAME    = EARTH
REF_FRAME      = TEME
TIME_SYSTEM    = UTC
MEAN_ELEMENT_THEORY = SGP/SGP4

EPOCH          = 2026-03-31T16:00:01.999584
MEAN_MOTION    = 15.80878542
ECCENTRICITY   = .0001122
INCLINATION    = 53.1594
RA_OF_ASC_NODE = 252.6374
ARG_OF_PERICENTER = 66.1027
MEAN_ANOMALY   = 198.0644

EPHEMERIS_TYPE = 0
CLASSIFICATION_TYPE = U
NORAD_CAT_ID   = 68334
ELEMENT_SET_NO = 999
REV_AT_EPOCH   = 257
BSTAR          = -.79843E-4
MEAN_MOTION_DOT = -.16431E-3
MEAN_MOTION_DDOT = 0

CCSDS_OMM_VERS = 2.0
CREATION_DATE  = 
ORIGINATOR     = 

OBJECT_NAME    = STARLINK-37217
OBJECT_ID      = 2026-059Q
CENTER_NAME    = EARTH
REF_FRAME      = TEME
TIME_SYSTEM    = UTC
MEAN_ELEMENT_THEORY = SGP/SGP4

EPOCH          = 2026-03-31T16:00:01.999584
MEAN_MOTION    = 15.80971022
ECCENTRICITY   = .0000853
INCLINATION    = 53.1596
RA_OF_ASC_NODE = 252.6285
ARG_OF_PERICENTER = 88.9874
MEAN_ANOMALY   = 179.4052

EPHEMERIS_TYPE = 0
CLASSIFICATION_TYPE = U
NORAD_CAT_ID   = 68335
ELEMENT_SET_NO = 999
REV_AT_EPOCH   = 257
BSTAR          = -.84319E-3
MEAN_MOTION_DOT = -.164722E-2
MEAN_MOTION_DDOT = 0

CCSDS_OMM_VERS = 2.0
CREATION_DATE  = 
ORIGINATOR     = 

OBJECT_NAME    = STARLINK-37143
OBJECT_ID      = 2026-059R
CENTER_NAME    = EARTH
REF_FRAME      = TEME
TIME_SYSTEM    = UTC
MEAN_ELEMENT_THEORY = SGP/SGP4

EPOCH          = 2026-03-31T16:00:01.999584
MEAN_MOTION    = 15.81230453
ECCENTRICITY   = .0000786
INCLINATION    = 53.1595
RA_OF_ASC_NODE = 252.6202
ARG_OF_PERICENTER = 73.5208
MEAN_ANOMALY   = 199.0079

EPHEMERIS_TYPE = 0
CLASSIFICATION_TYPE = U
NORAD_CAT_ID   = 68336
ELEMENT_SET_NO = 999
REV_AT_EPOCH   = 257
BSTAR          = -.28225E-2
MEAN_MOTION_DOT = -.533465E-2
MEAN_MOTION_DDOT = 0

